[{"OBJECT_NAME":"GSAT0206 (GALILEO 10)","OBJECT_ID":"2015-045B","EPOCH":"2026-03-02T02:41:49.553376","MEAN_MOTION":1.70473619,"ECCENTRICITY":0.0003844,"INCLINATION":54.9813,"RA_OF_ASC_NODE":224.5577,"ARG_OF_PERICENTER":49.8147,"MEAN_ANOMALY":310.1636,"EPHEMERIS_TYPE":0,"CLASSIFICATION_TYPE":"U","NORAD_CAT_ID":40890,"ELEMENT_SET_NO":999,"REV_AT_EPOCH":6521,"BSTAR":0,"MEAN_MOTION_DOT":1.2e-7,"MEAN_MOTION_DDOT":0},{"OBJECT_NAME":"GPS BIIF-11 (PRN 10)","OBJECT_ID":"2015-062A","EPOCH":"2026-03-02T13:57:52.710048","MEAN_MOTION":2.00567039,"ECCENTRICITY":0.01114583,"INCLINATION":56.8916,"RA_OF_ASC_NODE":34.9181,"ARG_OF_PERICENTER":231.482,"MEAN_ANOMALY":127.5052,"EPHEMERIS_TYPE":0,"CLASSIFICATION_TYPE":"U","NORAD_CAT_ID":41019,"ELEMENT_SET_NO":999,"REV_AT_EPOCH":7569,"BSTAR":0,"MEAN_MOTION_DOT":-7.1e-7,"MEAN_MOTION_DDOT":0},{"OBJECT_NAME":"GSAT0208 (GALILEO 11)","OBJECT_ID":"2015-079B","EPOCH":"2026-03-01T07:51:44.683200","MEAN_MOTION":1.70474277,"ECCENTRICITY":0.00040435,"INCLINATION":55.7558,"RA_OF_ASC_NODE":104.217,"ARG_OF_PERICENTER":323.8191,"MEAN_ANOMALY":36.2374,"EPHEMERIS_TYPE":0,"CLASSIFICATION_TYPE":"U","NORAD_CAT_ID":41175,"ELEMENT_SET_NO":999,"REV_AT_EPOCH":6335,"BSTAR":0,"MEAN_MOTION_DOT":1.3e-7,"MEAN_MOTION_DDOT":0},{"OBJECT_NAME":"IRNSS-1E","OBJECT_ID":"2016-003A","EPOCH":"2026-03-02T18:54:22.153824","MEAN_MOTION":1.00275459,"ECCENTRICITY":0.00178447,"INCLINATION":33.0034,"RA_OF_ASC_NODE":61.2821,"ARG_OF_PERICENTER":189.1467,"MEAN_ANOMALY":305.5224,"EPHEMERIS_TYPE":0,"CLASSIFICATION_TYPE":"U","NORAD_CAT_ID":41241,"ELEMENT_SET_NO":999,"REV_AT_EPOCH":3701,"BSTAR":0,"MEAN_MOTION_DOT":-2.95e-6,"MEAN_MOTION_DDOT":0},{"OBJECT_NAME":"GPS BIIF-12 (PRN 32)","OBJECT_ID":"2016-007A","EPOCH":"2026-03-02T16:00:42.354432","MEAN_MOTION":2.0055683,"ECCENTRICITY":0.00953906,"INCLINATION":55.4544,"RA_OF_ASC_NODE":93.6817,"ARG_OF_PERICENTER":245.954,"MEAN_ANOMALY":113.1161,"EPHEMERIS_TYPE":0,"CLASSIFICATION_TYPE":"U","NORAD_CAT_ID":41328,"ELEMENT_SET_NO":999,"REV_AT_EPOCH":7370,"BSTAR":0,"MEAN_MOTION_DOT":2.0e-7,"MEAN_MOTION_DDOT":0},{"OBJECT_NAME":"COSMOS 2514 (751)","OBJECT_ID":"2016-008A","EPOCH":"2026-03-02T07:03:15.451776","MEAN_MOTION":2.13102552,"ECCENTRICITY":0.00091653,"INCLINATION":65.0839,"RA_OF_ASC_NODE":316.6776,"ARG_OF_PERICENTER":209.7973,"MEAN_ANOMALY":150.2088,"EPHEMERIS_TYPE":0,"CLASSIFICATION_TYPE":"U","NORAD_CAT_ID":41330,"ELEMENT_SET_NO":999,"REV_AT_EPOCH":7834,"BSTAR":0,"MEAN_MOTION_DOT":-4.5e-7,"MEAN_MOTION_DDOT":0},{"OBJECT_NAME":"GSAT0211 (GALILEO 14)","OBJECT_ID":"2016-030A","EPOCH":"2026-03-02T14:59:35.994624","MEAN_MOTION":1.70473766,"ECCENTRICITY":0.00036317,"INCLINATION":55.1322,"RA_OF_ASC_NODE":224.6224,"ARG_OF_PERICENTER":25.7212,"MEAN_ANOMALY":334.2388,"EPHEMERIS_TYPE":0,"CLASSIFICATION_TYPE":"U","NORAD_CAT_ID":41549,"ELEMENT_SET_NO":999,"REV_AT_EPOCH":6085,"BSTAR":0,"MEAN_MOTION_DOT":1.1e-7,"MEAN_MOTION_DDOT":0},{"OBJECT_NAME":"GSAT0210 (GALILEO 13)","OBJECT_ID":"2016-030B","EPOCH":"2026-03-02T07:05:24.262080","MEAN_MOTION":1.70473885,"ECCENTRICITY":0.0001173,"INCLINATION":55.1304,"RA_OF_ASC_NODE":224.6297,"ARG_OF_PERICENTER":192.8511,"MEAN_ANOMALY":167.0898,"EPHEMERIS_TYPE":0,"CLASSIFICATION_TYPE":"U","NORAD_CAT_ID":41550,"ELEMENT_SET_NO":999,"REV_AT_EPOCH":6084,"BSTAR":0,"MEAN_MOTION_DOT":1.2e-7,"MEAN_MOTION_DDOT":0},{"OBJECT_NAME":"EUTELSAT 117 WEST B (WAAS/PRN 131)","OBJECT_ID":"2016-038B","EPOCH":"2026-03-02T16:58:55.012224","MEAN_MOTION":1.00271396,"ECCENTRICITY":6.83e-6,"INCLINATION":0.0344,"RA_OF_ASC_NODE":10.3703,"ARG_OF_PERICENTER":169.5452,"MEAN_ANOMALY":118.2901,"EPHEMERIS_TYPE":0,"CLASSIFICATION_TYPE":"U","NORAD_CAT_ID":41589,"ELEMENT_SET_NO":999,"REV_AT_EPOCH":3559,"BSTAR":0,"MEAN_MOTION_DOT":-2.8e-7,"MEAN_MOTION_DDOT":0},{"OBJECT_NAME":"GSAT0207 (GALILEO 15)","OBJECT_ID":"2016-069A","EPOCH":"2026-02-28T05:27:34.324704","MEAN_MOTION":1.70474383,"ECCENTRICITY":0.00050316,"INCLINATION":55.4267,"RA_OF_ASC_NODE":104.1007,"ARG_OF_PERICENTER":309.1503,"MEAN_ANOMALY":50.8842,"EPHEMERIS_TYPE":0,"CLASSIFICATION_TYPE":"U","NORAD_CAT_ID":41859,"ELEMENT_SET_NO":999,"REV_AT_EPOCH":5754,"BSTAR":0,"MEAN_MOTION_DOT":8.0e-8,"MEAN_MOTION_DDOT":0},{"OBJECT_NAME":"GSAT0212 (GALILEO 16)","OBJECT_ID":"2016-069B","EPOCH":"2026-02-27T11:52:00.727968","MEAN_MOTION":1.70474549,"ECCENTRICITY":0.00035416,"INCLINATION":55.4238,"RA_OF_ASC_NODE":104.1162,"ARG_OF_PERICENTER":336.342,"MEAN_ANOMALY":23.7177,"EPHEMERIS_TYPE":0,"CLASSIFICATION_TYPE":"U","NORAD_CAT_ID":41860,"ELEMENT_SET_NO":999,"REV_AT_EPOCH":5778,"BSTAR":0,"MEAN_MOTION_DOT":5.0e-8,"MEAN_MOTION_DDOT":0}]
